NORAD_CAT_ID,OBJECT_NAME,OBJECT_TYPE,EPOCH,MEAN_MOTION,ECCENTRICITY,INCLINATION,RA_OF_ASC_NODE,ARG_OF_PERICENTER,MEAN_ANOMALY,BSTAR,MEAN_MOTION_DOT,MEAN_MOTION_DDOT,TLE_LINE0,TLE_LINE1,TLE_LINE2,SEMIMAJOR_AXIS,PERIOD,APOGEE,PERIGEE,DECAYED
53265.0,STARLINK-4097,PAYLOAD,2022-08-08 06:00:00,15.73199268,0.0001284999999999,53.2196,330.4965,341.4651,224.5952,0.00064359,0.0009067999999999,0.0,0 STARLINK-4097,1 53265U 22086Z   22220.25001157  .00090680  00000-0  64359-3 0  9991,2 53265  53.2196 330.4965 0001285 341.4651 224.5952 15.73199268  2944,6727.897,91.533,350.62699999999984,348.898,0.0
53265.0,STARLINK-4097,PAYLOAD,2022-08-08 12:45:04,15.73274985,0.0001626,53.2201,329.1052,347.8192,12.2789,0.000273,0.0003799,0.0,0 STARLINK-4097,1 53265U 22086Z   22220.53129835  .00037990  00000-0  27300-3 0  9996,2 53265  53.2201 329.1052 0001626 347.8192  12.2789 15.73274985  3178,6727.681,91.529,350.64,348.452,0.0
53265.0,STARLINK-4097,PAYLOAD,2022-08-08 20:00:01,15.73272237,0.0001661,53.2197,327.6118,358.6332,273.2387,-0.00063858,-0.00089572,0.0,0 STARLINK-4097,1 53265U 22086Z   22220.83335648 -.00089572  00000-0 -63858-3 0  9993,2 53265  53.2197 327.6118 0001661 358.6332 273.2387 15.73272237  3039,6727.689,91.529,350.672,348.43699999999984,0.0
53265.0,STARLINK-4097,PAYLOAD,2022-08-08 22:00:00,15.73277001,0.0001636999999999,53.2199,327.199,2.4143,21.6381,-0.0009645,-0.0013429,0.0,0 STARLINK-4097,1 53265U 22086Z   22220.91667824 -.00134290  00000-0 -96450-3 0  9998,2 53265  53.2199 327.1990 0001637   2.4143  21.6381 15.73277001  1302,6727.676,91.529,350.642,348.439,0.0
53265.0,STARLINK-4097,PAYLOAD,2022-08-09 14:00:01,15.7315158,0.0001969,53.2203,323.9007,26.8856,175.003,-0.00048721,-0.00068309,0.0,0 STARLINK-4097,1 53265U 22086Z   22221.58334491 -.00068309  00000-0 -48721-3 0  9998,2 53265  53.2203 323.9007 0001969  26.8856 175.0030 15.73151580  1308,6728.033,91.536,351.223,348.5730000000001,0.0
53265.0,STARLINK-4097,PAYLOAD,2022-08-09 22:00:00,15.7311643,0.0002015,53.2198,322.2509,28.9731,261.7623,9.3294e-05,0.00012446,0.0,0 STARLINK-4097,1 53265U 22086Z   22221.91667824  .00012446  00000-0  93294-4 0  9999,2 53265  53.2198 322.2509 0002015  28.9731 261.7623 15.73116430  3205,6728.1330000000025,91.538,351.35400000000016,348.64300000000014,0.0
53265.0,STARLINK-4097,PAYLOAD,2022-08-10 14:00:01,15.73164732,0.0002099,53.22,318.9533,29.1302,79.4427,0.0001139999999999,0.00015384,0.0,0 STARLINK-4097,1 53265U 22086Z   22222.58334491  .00015384  00000-0  11400-3 0  9996,2 53265  53.2200 318.9533 0002099  29.1302  79.4427 15.73164732  1300,6727.996,91.535,351.273,348.449,0.0
53265.0,STARLINK-4097,PAYLOAD,2022-08-10 16:00:00,15.73164133,0.000212,53.2202,318.5413,27.4271,193.3693,0.00014388,0.00019589,0.0,0 STARLINK-4097,1 53265U 22086Z   22222.66667824  .00019589  00000-0  14388-3 0  9993,2 53265  53.2202 318.5413 0002120  27.4271 193.3693 15.73164133  3326,6727.996999999999,91.535,351.289,348.436,0.0
53265.0,STARLINK-4097,PAYLOAD,2022-08-10 22:00:00,15.73202355,0.0002041999999999,53.2201,317.3032,24.6842,172.7935,-0.00050302,-0.0007064,0.0,0 STARLINK-4097,1 53265U 22086Z   22222.91667824 -.00070640  00000-0 -50302-3 0  9994,2 53265  53.2201 317.3032 0002042  24.6842 172.7935 15.73202355  1300,6727.888000000001,91.533,351.12699999999984,348.38,0.0
53265.0,STARLINK-4097,PAYLOAD,2022-08-11 14:00:01,15.73187345,0.0002225,53.2204,314.0056,24.6147,350.6643,0.00024013,0.00033197,0.0,0 STARLINK-4097,1 53265U 22086Z   22223.58334491  .00033197  00000-0  24013-3 0  9993,2 53265  53.2204 314.0056 0002225  24.6147 350.6643 15.73187345  1308,6727.931,91.534,351.293,348.2990000000001,0.0
53265.0,STARLINK-4097,PAYLOAD,2022-08-11 22:00:00,15.73257223,0.0002126999999999,53.2199,312.3553,20.467,83.74799999999998,-0.00064621,-0.00090573,0.0,0 STARLINK-4097,1 53265U 22086Z   22223.91667824 -.00090573  00000-0 -64621-3 0  9991,2 53265  53.2199 312.3553 0002127  20.4670  83.7480 15.73257223  3522,6727.732,91.53,351.028,348.166,0.0
53265.0,STARLINK-4097,PAYLOAD,2022-08-12 04:00:00,15.73172634,0.0001946,53.2198,311.1172,21.6883,59.2636,0.00062562,0.00088005,0.0,0 STARLINK-4097,1 53265U 22086Z   22224.16667824  .00088005  00000-0  62562-3 0  9996,2 53265  53.2198 311.1172 0001946  21.6883  59.2636 15.73172634  3569,6727.973000000001,91.535,351.147,348.529,0.0
53265.0,STARLINK-4097,PAYLOAD,2022-08-12 14:00:01,15.73266509,0.0002295999999999,53.2198,309.058,21.4566,260.6791,-0.00039931,-0.00056454,0.0,0 STARLINK-4097,1 53265U 22086Z   22224.58334491 -.00056454  00000-0 -39931-3 0  9992,2 53265  53.2198 309.0580 0002296  21.4566 260.6791 15.73266509  1308,6727.706,91.529,351.115,348.026,0.0
53265.0,STARLINK-4097,PAYLOAD,2022-08-12 20:00:01,15.73256312,0.0002285,53.2196,307.8201,20.9699,237.9678,-0.0006888999999999,-0.00096448,0.0,0 STARLINK-4097,1 53265U 22086Z   22224.83335648 -.00096448  00000-0 -68890-3 0  9998,2 53265  53.2196 307.8201 0002285  20.9699 237.9678 15.73256312  3664,6727.735,91.53,351.13699999999994,348.06199999999984,0.0
53265.0,STARLINK-4097,PAYLOAD,2022-08-12 22:00:01,15.73247789,0.0002218999999999,53.2198,307.4072,21.7373,349.4426,-0.000725,-0.00101373,0.0,0 STARLINK-4097,1 53265U 22086Z   22224.91668981 -.00101373  00000-0 -72500-3 0  9993,2 53265  53.2198 307.4072 0002219  21.7373 349.4426 15.73247789  1300,6727.759,91.53,351.117,348.131,0.0
53265.0,STARLINK-4097,PAYLOAD,2022-08-13 14:00:01,15.73120057,0.0002592,53.2199,304.1098,26.0842,162.8488,0.00039354,0.00054787,0.0,0 STARLINK-4097,1 53265U 22086Z   22225.58334491  .00054787  00000-0  39354-3 0  9997,2 53265  53.2199 304.1098 0002592  26.0842 162.8488 15.73120057  3783,6728.123000000001,91.538,351.732,348.244,0.0
53265.0,STARLINK-4097,PAYLOAD,2022-08-13 22:00:00,15.73171432,0.0002465,53.2194,302.4592,26.9164,250.8692,2.761e-05,3.2500000000000004e-05,0.0,0 STARLINK-4097,1 53265U 22086Z   22225.91667824  .00003250  00000-0  27610-4 0  9995,2 53265  53.2194 302.4592 0002465  26.9164 250.8692 15.73171432  1307,6727.977,91.535,351.5,348.18300000000005,0.0
53265.0,STARLINK-4097,PAYLOAD,2022-08-14 14:00:01,15.73242179,0.0002593,53.2192,299.1620000000001,24.512,71.1841,-0.00028804,-0.0004093,0.0,0 STARLINK-4097,1 53265U 22086Z   22226.58334491 -.00040930  00000-0 -28804-3 0  9993,2 53265  53.2192 299.1620 0002593  24.5120  71.1841 15.73242179  1304,6727.775,91.531,351.384,347.895,0.0
53265.0,STARLINK-4097,PAYLOAD,2022-08-14 22:00:00,15.73249356,0.0002424999999999,53.2192,297.5109,21.3957,163.263,-0.00045864,-0.00064642,0.0,0 STARLINK-4097,1 53265U 22086Z   22226.91667824 -.00064642  00000-0 -45864-3 0  9990,2 53265  53.2192 297.5109 0002425  21.3957 163.2630 15.73249356  3995,6727.754,91.53,351.251,347.98800000000006,0.0
53265.0,STARLINK-4097,PAYLOAD,2022-08-15 14:00:01,15.73201114,0.0002631,53.2194,294.2134,16.8505,345.6799,-0.00025419,-0.00036151,0.0,0 STARLINK-4097,1 53265U 22086Z   22227.58334491 -.00036151  00000-0 -25419-3 0  9993,2 53265  53.2194 294.2134 0002631  16.8505 345.6799 15.73201114  4090,6727.892,91.533,351.527,347.987,0.0
53265.0,STARLINK-4097,PAYLOAD,2022-08-15 22:00:00,15.73170693,0.0002456,53.2191,292.5623,14.3912,77.0617,0.00019017,0.0002612,0.0,0 STARLINK-4097,1 53265U 22086Z   22227.91667824  .00026120  00000-0  19017-3 0  9999,2 53265  53.2191 292.5623 0002456  14.3912  77.0617 15.73170693  1304,6727.979,91.535,351.496,348.191,0.0
53265.0,STARLINK-4097,PAYLOAD,2022-08-16 06:00:02,15.73209036,0.0002418,53.219,290.9129,16.6454,163.7743,0.00021502,0.00029676,0.0,0 STARLINK-4097,1 53265U 22086Z   22228.25002315  .00029676  00000-0  21502-3 0  9996,2 53265  53.2190 290.9129 0002418  16.6454 163.7743 15.73209036  4209,6727.869000000002,91.533,351.361,348.108,0.0
53265.0,STARLINK-4097,PAYLOAD,2022-08-16 14:00:01,15.73226962,0.0002698,53.2189,289.2653,13.1661,256.1409,-0.00018849,-0.00027026,0.0,0 STARLINK-4097,1 53265U 22086Z   22228.58334491 -.00027026  00000-0 -18849-3 0  9994,2 53265  53.2189 289.2653 0002698  13.1661 256.1409 15.73226962  1303,6727.818,91.532,351.49800000000016,347.86800000000005,0.0
53265.0,STARLINK-4097,PAYLOAD,2022-08-16 22:00:00,15.73194118,0.0002517,53.219,287.6138,11.9873,346.2761,0.00023621,0.00032653,0.0,0 STARLINK-4097,1 53265U 22086Z   22228.91667824  .00032653  00000-0  23621-3 0  9994,2 53265  53.2190 287.6138 0002517  11.9873 346.2761 15.73194118  1305,6727.9119999999975,91.534,351.47,348.084,0.0
53265.0,STARLINK-4097,PAYLOAD,2022-08-17 14:00:01,15.73178566,0.0002894,53.2193,284.3166,16.4537,159.6819,0.00026173,0.00036241,0.0,0 STARLINK-4097,1 53265U 22086Z   22229.58334491  .00036241  00000-0  26173-3 0  9991,2 53265  53.2193 284.3166 0002894  16.4537 159.6819 15.73178566  4412,6727.956,91.534,351.76800000000014,347.874,0.0
53265.0,STARLINK-4097,PAYLOAD,2022-08-18 14:00:01,15.73230136,0.000294,53.2188,279.3685,13.3854,69.5394,0.00021451,0.00029633,0.0,0 STARLINK-4097,1 53265U 22086Z   22230.58334491  .00029633  00000-0  21451-3 0  9994,2 53265  53.2188 279.3685 0002940  13.3854  69.5394 15.73230136  1300,6727.809,91.531,351.652,347.696,0.0
53265.0,STARLINK-4097,PAYLOAD,2022-08-18 22:00:00,15.7320316,0.0002736,53.219,277.7167,11.695,160.2219,0.00042783,0.00059867,0.0,0 STARLINK-4097,1 53265U 22086Z   22230.91667824  .00059867  00000-0  42783-3 0  9993,2 53265  53.2190 277.7167 0002736  11.6950 160.2219 15.73203160  1303,6727.886,91.533,351.592,347.91,0.0
53265.0,STARLINK-4097,PAYLOAD,2022-08-19 04:00:01,15.73324452,0.0002653,53.2183,276.4749,18.4447,130.233,-0.0014304,-0.00197824,0.0,0 STARLINK-4097,1 53265U 22086Z   22231.16668981 -.00197824  00000-0 -14304-2 0  9991,2 53265  53.2183 276.4749 0002653  18.4447 130.2330 15.73324452  4662,6727.54,91.526,351.19,347.621,0.0
53265.0,STARLINK-4097,PAYLOAD,2022-08-19 14:00:01,15.73141024,0.000308,53.2191,274.4199,14.1556,335.6863,0.00054246,0.00076021,0.0,0 STARLINK-4097,1 53265U 22086Z   22231.58334491  .00076021  00000-0  54246-3 0  9996,2 53265  53.2191 274.4199 0003080  14.1556 335.6863 15.73141024  4728,6728.063,91.537,352.001,347.856,0.0
